BEIDOU 2A               
1 31115U 07011A   14093.08911337 -.00000095  00000-0  00000+0 0  1197
2 31115  53.4830   5.5292 0002215 300.4560  59.5411  1.77348090 47338
BEIDOU G1               
1 36287U 10001A   14093.68216260 -.00000306  00000-0  10000-3 0  2285
2 36287   1.6085   5.6900 0003195 199.3954  12.4135  1.00272172 15471
BEIDOU G3               
1 36590U 10024A   14094.20737086 -.00000377  00000-0  00000+0 0   753
2 36590   1.4520  25.0568 0003202 314.6932  37.8464  1.00268561 14082
BEIDOU IGSO 1           
1 36828U 10036A   14093.92925266 -.00000165  00000-0  10000-3 0  9824
2 36828  54.4411 205.1408 0034405 187.2180 253.5251  1.00254837 13525
BEIDOU G4               
1 37210U 10057A   14093.61797299 -.00000136  00000-0  10000-3 0  9246
2 37210   1.0502  49.0925 0003506 160.3948   4.7725  1.00270498 12602
BEIDOU IGSO 2           
1 37256U 10068A   14093.83457891 -.00000230  00000-0  10000-3 0  8922
2 37256  54.4148 324.7865 0021208 195.6220  91.4790  1.00263785 12100
BEIDOU IGSO 3           
1 37384U 11013A   14093.90849838 -.00000142  00000-0  10000-3 0  8066
2 37384  56.4408  85.2295 0025215 186.0237   8.8516  1.00273694 10985
BEIDOU IGSO 4           
1 37763U 11038A   14093.67908759 -.00000100  00000-0  10000-3 0  6541
2 37763  54.7578 207.3194 0028268 195.5913 126.5118  1.00290953  9944
BEIDOU IGSO 5           
1 37948U 11073A   14093.91346094 -.00000174  00000-0  10000-3 0  6372
2 37948  54.5202 324.2134 0023741 193.6101  98.5563  1.00276172  8705
BEIDOU G5               
1 38091U 12008A   14093.26865377  .00000000  00000-0  10000-3 0  6040
2 38091   0.9258 347.8770 0002789  83.8921 275.2355  1.00274316  7774
BEIDOU M3               
1 38250U 12018A   14093.70771015 -.00000005  00000-0  10000-3 0  6150
2 38250  55.4840  93.5928 0024363 203.0673   1.1771  1.86233525 13276
BEIDOU M4               
1 38251U 12018B   14094.57965360  .00000001  00000-0  10000-3 0  6307
2 38251  55.4191  93.0638 0026916 196.5852 277.3240  1.86234310 13293
BEIDOU M5               
1 38774U 12050A   14093.56208495 -.00000012  00000-0  00000+0 0  4867
2 38774  54.8213 213.2876 0024953 188.3776 113.2046  1.86232746 10654
BEIDOU M6               
1 38775U 12050B   14093.62924034 -.00000012  00000-0  00000+0 0  4904
2 38775  54.9263 212.8492 0017132 207.8333 184.1943  1.86233112 10658
BEIDOU G6               
1 38953U 12059A   14094.05879153 -.00000160  00000-0  10000-3 0  4358
2 38953   0.7502 279.3294 0001484 106.6912 267.4642  1.00271614  5369
